{"spkid": "50771475", "covariance": {"epoch": "2459315.5", "labels": ["e", "q", "tp", "node", "peri", "i"], "data": [["3.922308430827369E-16", "-7.547151676239935E-16", "6.710392036207116E-15", "2.695082103500061E-14", "-2.764489283860527E-14", "4.960503471151317E-15"], ["-7.547151676239935E-16", "1.462628364640137E-15", "1.139887315074904E-15", "-6.775606164629894E-14", "5.915688979360639E-14", "-1.248262660633152E-14"], ["6.710392036207116E-15", "1.139887315074904E-15", "1.764321130183768E-10", "5.612063861835038E-11", "4.210891035968467E-11", "1.595772863284244E-12"], ["2.695082103500061E-14", "-6.775606164629894E-14", "5.612063861835038E-11", "6.518078209421973E-10", "-5.702892289253278E-10", "1.026693207794965E-10"], ["-2.764489283860527E-14", "5.915688979360639E-14", "4.210891035968467E-11", "-5.702892289253278E-10", "5.855882583006167E-10", "-9.353800298254296E-11"], ["4.960503471151317E-15", "-1.248262660633152E-14", "1.595772863284244E-12", "1.026693207794965E-10", "-9.353800298254296E-11", "3.516227502285059E-11"]], "elements": [{"title": "eccentricity", "value": ".4983803667024599", "units": null, "name": "e", "sigma": 1.98048186834098e-08, "label": "e"}, {"title": "perihelion distance", "value": ".9524903519292776", "units": "au", "sigma": 3.82443246069288e-08, "name": "q", "label": "q"}, {"name": "tp", "sigma": 1.32827750496038e-05, "title": "time of perihelion passage", "value": "2459675.312889822126", "units": "TDB", "label": "tp"}, {"label": "node", "units": "deg", "value": "323.9673421680558", "title": "longitude of the ascending node", "sigma": 2.55305272358837e-05, "name": "om"}, {"label": "peri", "value": "145.7229406251512", "title": "argument of perihelion", "units": "deg", "sigma": 2.41989309330106e-05, "name": "w"}, {"units": "deg", "title": "inclination", "value": "12.19844206604441", "sigma": 5.92977866558699e-06, "name": "i", "label": "i"}]}, "elements": [{"label": "e", "value": ".4984160713828824", "title": "eccentricity", "units": null, "sigma": "1.9779E-8", "name": "e"}, {"label": "a", "value": "1.897980077778209", "title": "semi-major axis", "units": "au", "name": "a", "sigma": "6.5703E-9"}, {"label": "q", "sigma": "3.8198E-8", "name": "q", "title": "perihelion distance", "value": ".9519963038490168", "units": "au"}, {"units": "deg", "value": "12.20090477219782", "title": "inclination; angle with respect to x-y ecliptic plane", "sigma": "5.9361E-6", "name": "i", "label": "i"}, {"label": "node", "units": "deg", "value": "323.9344614936228", "title": "longitude of the ascending node", "name": "om", "sigma": "2.5526E-5"}, {"units": "deg", "title": "argument of perihelion", "value": "145.8023635645547", "name": "w", "sigma": "2.4197E-5", "label": "peri"}, {"name": "ma", "sigma": "6.5198E-6", "units": "deg", "title": "mean anomaly", "value": "214.9226644417002", "label": "M"}, {"title": "time of perihelion passage", "value": "2461585.386759582189", "units": "TDB", "sigma": "1.8712E-5", "name": "tp", "label": "tp"}, {"label": "period", "name": "per", "sigma": "4.9593E-6", "value": "955.0715342018909", "title": "sidereal orbital period", "units": "d"}, {"name": "n", "sigma": "1.9573E-9", "units": "deg/d", "title": "mean motion", "value": ".3769351164892956", "label": "n"}, {"label": "Q", "units": "au", "value": "2.843963851707402", "title": "aphelion distance", "name": "ad", "sigma": "9.8451E-9"}], "epoch": "2461200.5"}